NSS-11                  
1 26554U 00059A   26177.55793939  .00000034  00000+0  00000+0 0  9994
2 26554   2.1506  81.2886 0003119   7.5624 202.6806  1.00272639 41389
AMC-6                   
1 26580U 00067A   26177.56759473  .00000099  00000+0  00000+0 0  9999
2 26580   0.1761  83.4313 0003937  21.4354 239.1054  1.00272603 93985
AMC-15                  
1 28446U 04041A   26177.50736897 -.00000077  00000+0  00000+0 0  9994
2 28446   0.0201  30.4859 0002489  56.8071 264.9358  1.00271576 79392
NSS-10                  
1 28526U 05003A   26177.43726308 -.00000247  00000+0  00000+0 0  9999
2 28526   6.4723  70.3434 0003176  15.5291 308.6495  1.00272518 53243
ASTRA 1KR               
1 29055U 06012A   26177.52679770  .00000130  00000+0  00000+0 0  9998
2 29055   0.4979  83.2436 0003722   8.8843  31.1977  1.00275468 45799
ASTRA 1L                
1 31306U 07016A   26177.41178747 -.00000175  00000+0  00000+0 0  9991
2 31306   1.3455  81.5190 0005682  18.1106 298.6482  1.00270563 45074
ASTRA 4A                
1 32299U 07057A   26177.59528282  .00000044  00000+0  00000+0 0  9994
2 32299   0.0193 321.5923 0002622 133.1954  39.0279  1.00271112 51745
ASTRA 1M                
1 33436U 08057A   26177.59822949  .00000132  00000+0  00000+0 0  9994
2 33436   0.3206  82.6377 0004930  26.0796  40.7699  1.00269269 45831
NSS-9                   
1 33749U 09008A   26177.48806845  .00000082  00000+0  00000+0 0  9997
2 33749   1.2857  82.5816 0002289 357.6737 193.1416  1.00274201 63618
SES-7 (PROTOSTAR 2)     
1 34941U 09027A   26177.40196461 -.00000334  00000+0  00000+0 0  9992
2 34941   0.0361  65.5459 0000128 315.9215 146.0096  1.00274316 62721
NSS-12                  
1 36032U 09058A   26177.53434497  .00000083  00000+0  00000+0 0  9997
2 36032   0.0761 276.7086 0004956 147.1941 100.1227  1.00272695 61010
SES-1                   
1 36516U 10016A   26177.57435477 -.00000103  00000+0  00000+0 0  9997
2 36516   0.0294 301.5889 0002961 148.8187 290.0520  1.00271776 59123
ASTRA 3B                
1 36581U 10021A   26177.59900950  .00000147  00000+0  00000+0 0  9997
2 36581   1.4934  83.4393 0004076  15.0728  55.3825  1.00275240 58963
SES-3                   
1 37748U 11035A   26177.57392144 -.00000092  00000+0  00000+0 0  9997
2 37748   1.3509  83.0029 0002446 358.3472 296.9480  1.00271184 54684
ASTRA 1N                
1 37775U 11041A   26177.59814282  .00000131  00000+0  00000+0 0  9991
2 37775   0.0807  37.2659 0005933  57.5658  54.4009  1.00270342 44621
SES-2                   
1 37809U 11049A   26177.57712811 -.00000185  00000+0  00000+0 0  9990
2 37809   0.0843  94.8814 0003084 357.8847 302.6974  1.00272322 54059
QUETZSAT 1              
1 37826U 11054A   26177.50781760 -.00000230  00000+0  00000+0 0  9998
2 37826   0.0152 328.7585 0002946 128.1997 283.4933  1.00272582 49969
SES-4                   
1 38087U 12007A   26177.30484314 -.00000157  00000+0  00000+0 0  9998
2 38087   0.0233  37.7023 0002535  56.9582 267.5225  1.00273553 52314
SES-5                   
1 38652U 12036A   26177.52393767  .00000045  00000+0  00000+0 0  9998
2 38652   0.0446 318.8085 0002282 135.2580  14.1682  1.00271090 44551
ASTRA 2F                
1 38778U 12051A   26177.31480985  .00000161  00000+0  00000+0 0  9999
2 38778   0.0843 258.0979 0002549 272.8321 245.0647  1.00276369 41226
SES-6                   
1 39172U 13026A   26177.51501097 -.00000250  00000+0  00000+0 0  9991
2 39172   0.0172  12.5688 0002883  87.2695 319.7068  1.00270996 47810
O3B FM5                 
1 39188U 13031A   26177.43483737 -.00000022  00000+0  00000+0 0  9992
2 39188   0.0972 341.2443 0002898 100.0312 278.7568  5.00115683237491
O3B FM4                 
1 39189U 13031B   26174.15613176 -.00000022  00000+0  00000+0 0  9991
2 39189   0.0419 346.4879 0005050  94.3599 279.2079  5.00115267237348
O3B FM2                 
1 39190U 13031C   26177.41987635 -.00000022  00000+0  00000+0 0  9999
2 39190   0.0365 341.8248 0002759 109.6102 268.5959  5.00116103237575
O3B PFM                 
1 39191U 13031D   26177.43399613 -.00000022  00000+0  00000+0 0  9995
2 39191   0.0672 350.0147 0005344  97.4425 272.6033  5.00116108237127
ASTRA 2E                
1 39285U 13056A   26177.59996284  .00000162  00000+0  00000+0 0  9994
2 39285   0.0626 329.5622 0002547 133.5369  56.0904  1.00270811 46510
SES-8                   
1 39460U 13071A   26177.61317826 -.00000258  00000+0  00000+0 0  9995
2 39460   0.0329 279.6487 0003043 174.6122 136.2202  1.00272428 44521
ASTRA 5B                
1 39617U 14011B   26177.59900950  .00000148  00000+0  00000+0 0  9994
2 39617   0.0533 324.6786 0002213 114.4875  74.6662  1.00272427 44760
O3B FM3                 
1 40079U 14038A   26177.50067682 -.00000022  00000+0  00000+0 0  9996
2 40079   0.0479 353.4104 0002399 158.2787 208.3233  5.00115760213500
O3B FM7                 
1 40080U 14038B   26177.24690475 -.00000022  00000+0  00000+0 0  9991
2 40080   0.0465 344.5756 0003749  82.5010 292.9623  5.00115706218337
O3B FM6                 
1 40081U 14038C   26175.07508707 -.00000022  00000+0  00000+0 0  9997
2 40081   0.0468 350.3198 0002642 101.3254 268.3839  5.00115795218173
O3B FM8                 
1 40082U 14038D   26177.32713065 -.00000022  00000+0  00000+0 0  9993
2 40082   0.0466 348.9222 0002769 107.8250 263.2835  5.00116133218403
O3B FM10                
1 40348U 14083A   26176.75469644 -.00000022  00000+0  00000+0 0  9995
2 40348   0.0365 329.6145 0002652 123.4502 266.9649  5.00115440210327
O3B FM11                
1 40349U 14083B   26177.56690585 -.00000022  00000+0  00000+0 0  9996
2 40349   0.0554 353.3267 0002654  85.0040 281.6985  5.00115616210376
O3B FM12                
1 40350U 14083C   26177.39402140 -.00000022  00000+0  00000+0 0  9997
2 40350   0.0544 353.5507 0002523  99.0192 267.4584  5.00116022210384
O3B FM9                 
1 40351U 14083D   26177.42085067 -.00000022  00000+0  00000+0 0  9997
2 40351   0.0563 352.7072 0002697 101.0693 266.2537  5.00116045210533
ASTRA 2G                
1 40364U 14089A   26177.31480985  .00000161  00000+0  00000+0 0  9996
2 40364   0.0511  21.8160 0004871  51.1161 343.0121  1.00273106 42054
SES-9                   
1 41380U 16013A   26177.54449179 -.00000333  00000+0  00000+0 0  9991
2 41380   0.0133 327.3608 0002544 127.9323 123.6887  1.00266585 37532
SES-10                  
1 42432U 17017A   26177.58111480 -.00000261  00000+0  00000+0 0  9990
2 42432   0.0199  38.8803 0002967  59.0529 319.0753  1.00270551 33847
SES-15                  
1 42709U 17026A   26175.50131078  .00000068  00000+0  00000+0 0  9996
2 42709   0.0193 335.4736 0000659  95.5096 252.9752  1.00268280  7503
SES-11 (ECHOSTAR 105)   
1 42967U 17063A   26177.57357477 -.00000078  00000+0  00000+0 0  9997
2 42967   0.0317 305.3546 0002955 146.5059 284.3784  1.00271444 31810
SES-14                  
1 43175U 18012B   26177.51362429 -.00000267  00000+0  00000+0 0  9991
2 43175   0.0159  24.6465 0001260  69.1262 318.2659  1.00272390  7116
O3B FM15                
1 43231U 18024A   26177.08787861 -.00000022  00000+0  00000+0 0  9999
2 43231   0.0518   1.3241 0002629  90.8365 267.8688  5.00115853151471
O3B FM16                
1 43232U 18024B   26177.14020849 -.00000022  00000+0  00000+0 0  9993
2 43232   0.0517   5.8715 0002645  86.5058 267.6523  5.00116005151392
O3B FM14                
1 43233U 18024C   26177.38090667 -.00000022  00000+0  00000+0 0  9995
2 43233   0.0504   6.8504 0002886  88.5275 264.6543  5.00115824151416
O3B FM13                
1 43234U 18024D   26171.25057030 -.00000024  00000+0  00000+0 0  9995
2 43234   0.0547 261.1101 0023783  59.3674  39.3467  5.00080344151219
SES-12                  
1 43488U 18049A   26175.90487203 -.00000260  00000+0  00000+0 0  9990
2 43488   0.0123   7.4810 0000485 300.7127  25.6053  1.00271664 29494
O3B FM20                
1 44112U 19020A   26177.00718586 -.00000022  00000+0  00000+0 0  9995
2 44112   0.0522 357.6246 0002410  88.9424 273.4599  5.00115618132011
O3B FM19                
1 44113U 19020B   26177.43398415 -.00000022  00000+0  00000+0 0  9998
2 44113   0.0759 338.1294 0003856  98.5785 283.3345  5.00116034131890
O3B FM17                
1 44114U 19020C   26177.31426134 -.00000022  00000+0  00000+0 0  9996
2 44114   0.0345   9.0311 0002588  84.8674 266.1304  5.00115649131987
O3B FM18                
1 44115U 19020D   26177.46048650 -.00000022  00000+0  00000+0 0  9996
2 44115   0.0526 357.5042 0002773  97.5705 264.9563  5.00115445132116
SES-17                  
1 49332U 21095A   26176.95253112 -.00000261  00000+0  00000+0 0  9996
2 49332   0.0241  40.4215 0001169  51.8184  97.6590  1.00270262 17947
SES-22                  
1 52933U 22071A   26177.33341925  .00000116  00000+0  00000+0 0  9993
2 52933   0.0139 310.4091 0001325 131.3346 173.7443  1.00270212  7615
SES-20                  
1 53960U 22123A   26175.19760890 -.00000093  00000+0  00000+0 0  9995
2 53960   0.0251  65.9784 0002053  31.5385 142.8634  1.00269292 13606
SES-21                  
1 53961U 22123B   26174.43155243  .00000000  00000+0  00000+0 0  9999
2 53961   0.0387  19.7009 0001007  64.8583 211.4828  1.00271938  7275
O3B MPOWER F1           
1 54755U 22174A   26177.59160152 -.00000022  00000+0  00000+0 0  9997
2 54755   0.0511 340.8568 0006509 127.0531 348.1509  5.00114944 65838
O3B MPOWER F2           
1 54756U 22174B   26177.50501746 -.00000022  00000+0  00000+0 0  9997
2 54756   0.0470 340.5705 0005844 110.4929 269.0029  5.00115083 65902
SES-18                  
1 55970U 23038A   26177.57392144 -.00000090  00000+0  00000+0 0  9998
2 55970   0.0361 278.9472 0000572 223.7785 235.4769  1.00272249 12191
SES-19                  
1 55971U 23038B   26177.56759473  .00000099  00000+0  00000+0 0  9998
2 55971   0.0142 323.3420 0001969 133.2304 247.5344  1.00272489 12188
O3B MPOWER F4           
1 56367U 23059A   26177.16948544 -.00000022  00000+0  00000+0 0  9993
2 56367   0.0632 353.1800 0007669 107.5599 259.3458  5.00115566 59058
O3B MPOWER F3           
1 56368U 23059B   26176.20320308 -.00000022  00000+0  00000+0 0  9990
2 56368   0.0641 352.7501 0006719  99.4153 267.9108  5.00116574 55134
O3B MPOWER F5           
1 58346U 23175A   26177.50352309 -.00000022  00000+0  00000+0 0  9997
2 58346   0.0501  10.8041 0005286 102.8426 246.4081  5.00116038 49891
O3B MPOWER F6           
1 58347U 23175B   26175.60508972 -.00000022  00000+0  00000+0 0  9996
2 58347   0.0528   2.8563 0004492  86.8662 270.3279  5.00115926 48723
ASTRA 1P (SES-24)       
1 60086U 24115A   26175.90625000  .00000129  00000+0  00000+0 0  9996
2 60086   0.0595 340.0652 0000828  24.8630 253.5862  1.00274964  7272
O3B MPOWER F7           
1 62362U 24244A   26177.47048477 -.00000022  00000+0  00000+0 0  9992
2 62362   0.0673 346.3984 0006023 105.2714 268.3986  5.00115449 26992
O3B MPOWER F8           
1 62363U 24244B   26177.43742617 -.00000022  00000+0  00000+0 0  9996
2 62363   0.0149 341.8208 0005883 102.7654 275.4802  5.00115169 21325
O3B MPOWER F9           
1 64866U 25153A   26177.57072529 -.00000022  00000+0  00000+0 0  9999
2 64866   0.0594   8.4568 0006507 107.2676 244.3421  5.00115812 20025
O3B MPOWER F10          
1 64867U 25153B   26176.13750899 -.00000022  00000+0  00000+0 0  9994
2 64867   0.0570   4.8421 0001958 248.5707 106.5647  5.00114998 22437
